{
  "type": "FeatureCollection",
  "features": [
    {
      "type": "Feature",
      "properties": {
        "norad_id": 61182,
        "name": "GSAT0232 (GALILEO 32)",
        "group": "gnss",
        "lat": -24.85802747165386,
        "lon": -152.51995496459637,
        "alt_km": 23228.291125410524,
        "timestamp": "2025-12-20T07:33:51.057255+00:00",
        "meta_object_name": "GSAT0232 (GALILEO 32)",
        "meta_object_id": "2024-167A",
        "meta_epoch": "2025-12-18T08:17:33.319392",
        "meta_mean_motion": 1.70473695,
        "meta_eccentricity": 0.0001893,
        "meta_inclination": 55.239,
        "meta_ra_of_asc_node": 226.2771,
        "meta_arg_of_pericenter": 209.3432,
        "meta_mean_anomaly": 351.1487,
        "meta_ephemeris_type": 0,
        "meta_classification_type": "U",
        "meta_norad_cat_id": 61182,
        "meta_element_set_no": 999,
        "meta_rev_at_epoch": 779,
        "meta_bstar": 0,
        "meta_mean_motion_dot": 6.2e-07,
        "meta_mean_motion_ddot": 0,
        "tle_line1": "1 61182U 24167A   25352.34552453  .00000062  00000+0  00000+0 0  9992",
        "tle_line2": "2 61182  55.2390 226.2771 0001893 209.3432 351.1487  1.70473695  7799"
      },
      "geometry": {
        "type": "Point",
        "coordinates": [
          -152.51995496459637,
          -24.85802747165386
        ]
      }
    },
    {
      "type": "Feature",
      "properties": {
        "norad_id": 61183,
        "name": "GSAT0226 (GALILEO 31)",
        "group": "gnss",
        "lat": 54.41472898242255,
        "lon": -57.81238171281306,
        "alt_km": 23213.017166194222,
        "timestamp": "2025-12-20T07:33:51.057266+00:00",
        "meta_object_name": "GSAT0226 (GALILEO 31)",
        "meta_object_id": "2024-167B",
        "meta_epoch": "2025-12-19T08:05:33.318816",
        "meta_mean_motion": 1.70473764,
        "meta_eccentricity": 0.0001078,
        "meta_inclination": 55.2375,
        "meta_ra_of_asc_node": 226.2553,
        "meta_arg_of_pericenter": 106.8002,
        "meta_mean_anomaly": 94.9592,
        "meta_ephemeris_type": 0,
        "meta_classification_type": "U",
        "meta_norad_cat_id": 61183,
        "meta_element_set_no": 999,
        "meta_rev_at_epoch": 778,
        "meta_bstar": 0,
        "meta_mean_motion_dot": 6.7e-07,
        "meta_mean_motion_ddot": 0,
        "tle_line1": "1 61183U 24167B   25353.33719119  .00000067  00000+0  00000+0 0  9992",
        "tle_line2": "2 61183  55.2375 226.2553 0001078 106.8002  94.9592  1.70473764  7785"
      },
      "geometry": {
        "type": "Point",
        "coordinates": [
          -57.81238171281306,
          54.41472898242255
        ]
      }
    },
    {
      "type": "Feature",
      "properties": {
        "norad_id": 61186,
        "name": "BEIDOU-3 M25 (C47)",
        "group": "gnss",
        "lat": 36.069813540622114,
        "lon": 97.31495040559513,
        "alt_km": 21538.492300667494,
        "timestamp": "2025-12-20T07:33:51.057279+00:00",
        "meta_object_name": "BEIDOU-3 M25 (C47)",
        "meta_object_id": "2024-168B",
        "meta_epoch": "2025-12-19T20:26:35.565792",
        "meta_mean_motion": 1.86230275,
        "meta_eccentricity": 0.00054526,
        "meta_inclination": 54.6358,
        "meta_ra_of_asc_node": 308.4741,
        "meta_arg_of_pericenter": 299.4214,
        "meta_mean_anomaly": 243.6633,
        "meta_ephemeris_type": 0,
        "meta_classification_type": "U",
        "meta_norad_cat_id": 61186,
        "meta_element_set_no": 999,
        "meta_rev_at_epoch": 844,
        "meta_bstar": 0,
        "meta_mean_motion_dot": -7.4e-07,
        "meta_mean_motion_ddot": 0,
        "tle_line1": "1 61186U 24168B   25353.85180053 -.00000074  00000+0  00000+0 0  9991",
        "tle_line2": "2 61186  54.6358 308.4741 0005452 299.4214 243.6633  1.86230275  8446"
      },
      "geometry": {
        "type": "Point",
        "coordinates": [
          97.31495040559513,
          36.069813540622114
        ]
      }
    },
    {
      "type": "Feature",
      "properties": {
        "norad_id": 61187,
        "name": "BEIDOU-3 M27 (C49)",
        "group": "gnss",
        "lat": -54.6182871845682,
        "lon": -143.81853642183347,
        "alt_km": 21531.65264615867,
        "timestamp": "2025-12-20T07:33:51.057293+00:00",
        "meta_object_name": "BEIDOU-3 M27 (C49)",
        "meta_object_id": "2024-168C",
        "meta_epoch": "2025-12-19T13:44:54.698784",
        "meta_mean_motion": 1.8623043,
        "meta_eccentricity": 0.0002515,
        "meta_inclination": 54.6314,
        "meta_ra_of_asc_node": 308.4673,
        "meta_arg_of_pericenter": 339.733,
        "meta_mean_anomaly": 151.2797,
        "meta_ephemeris_type": 0,
        "meta_classification_type": "U",
        "meta_norad_cat_id": 61187,
        "meta_element_set_no": 999,
        "meta_rev_at_epoch": 591,
        "meta_bstar": 0,
        "meta_mean_motion_dot": -7.6e-07,
        "meta_mean_motion_ddot": 0,
        "tle_line1": "1 61187U 24168C   25353.57285531 -.00000076  00000+0  00000+0 0  9990",
        "tle_line2": "2 61187  54.6314 308.4673 0002515 339.7330 151.2797  1.86230430  5914"
      },
      "geometry": {
        "type": "Point",
        "coordinates": [
          -143.81853642183347,
          -54.6182871845682
        ]
      }
    },
    {
      "type": "Feature",
      "properties": {
        "norad_id": 62339,
        "name": "GPS BIII-7  (PRN 01)",
        "group": "gnss",
        "lat": -23.74559301820356,
        "lon": -36.58303653392597,
        "alt_km": 20152.937339332453,
        "timestamp": "2025-12-20T07:33:51.057307+00:00",
        "meta_object_name": "GPS BIII-7  (PRN 01)",
        "meta_object_id": "2024-242A",
        "meta_epoch": "2025-12-18T08:46:28.895808",
        "meta_mean_motion": 2.00568182,
        "meta_eccentricity": 0.0012509,
        "meta_inclination": 54.922,
        "meta_ra_of_asc_node": 341.5124,
        "meta_arg_of_pericenter": 345.6877,
        "meta_mean_anomaly": 17.1618,
        "meta_ephemeris_type": 0,
        "meta_classification_type": "U",
        "meta_norad_cat_id": 62339,
        "meta_element_set_no": 999,
        "meta_rev_at_epoch": 763,
        "meta_bstar": 0,
        "meta_mean_motion_dot": -8.5e-07,
        "meta_mean_motion_ddot": 0,
        "tle_line1": "1 62339U 24242A   25352.36561222 -.00000085  00000+0  00000+0 0  9993",
        "tle_line2": "2 62339  54.9220 341.5124 0012509 345.6877  17.1618  2.00568182  7636"
      },
      "geometry": {
        "type": "Point",
        "coordinates": [
          -36.58303653392597,
          -23.74559301820356
        ]
      }
    },
    {
      "type": "Feature",
      "properties": {
        "norad_id": 62850,
        "name": "NVS-02 (IRNSS-1K)",
        "group": "gnss",
        "lat": -20.72576209617024,
        "lon": -134.30822860244268,
        "alt_km": 15523.835094550472,
        "timestamp": "2025-12-20T07:33:51.057319+00:00",
        "meta_object_name": "NVS-02 (IRNSS-1K)",
        "meta_object_id": "2025-020A",
        "meta_epoch": "2025-12-19T10:34:57.286848",
        "meta_mean_motion": 2.17599926,
        "meta_eccentricity": 0.7347349,
        "meta_inclination": 20.967,
        "meta_ra_of_asc_node": 325.2345,
        "meta_arg_of_pericenter": 30.5775,
        "meta_mean_anomaly": 356.7086,
        "meta_ephemeris_type": 0,
        "meta_classification_type": "U",
        "meta_norad_cat_id": 62850,
        "meta_element_set_no": 999,
        "meta_rev_at_epoch": 706,
        "meta_bstar": 0.00012519,
        "meta_mean_motion_dot": 2.05e-06,
        "meta_mean_motion_ddot": 0,
        "tle_line1": "1 62850U 25020A   25353.44094082  .00000205  00000+0  12519-3 0  9996",
        "tle_line2": "2 62850  20.9670 325.2345 7347349  30.5775 356.7086  2.17599926  7063"
      },
      "geometry": {
        "type": "Point",
        "coordinates": [
          -134.30822860244268,
          -20.72576209617024
        ]
      }
    },
    {
      "type": "Feature",
      "properties": {
        "norad_id": 62876,
        "name": "QZS-6 (QZSS/PRN 200)",
        "group": "gnss",
        "lat": -0.05244658098297619,
        "lon": -66.84917265982342,
        "alt_km": 35779.806358222086,
        "timestamp": "2025-12-20T07:33:51.057331+00:00",
        "meta_object_name": "QZS-6 (QZSS/PRN 200)",
        "meta_object_id": "2025-023A",
        "meta_epoch": "2025-12-19T20:26:26.289024",
        "meta_mean_motion": 1.00272644,
        "meta_eccentricity": 0.00014853,
        "meta_inclination": 0.0481,
        "meta_ra_of_asc_node": 68.6694,
        "meta_arg_of_pericenter": 209.7376,
        "meta_mean_anomaly": 207.4378,
        "meta_ephemeris_type": 0,
        "meta_classification_type": "U",
        "meta_norad_cat_id": 62876,
        "meta_element_set_no": 999,
        "meta_rev_at_epoch": 316,
        "meta_bstar": 0,
        "meta_mean_motion_dot": -2.09e-06,
        "meta_mean_motion_ddot": 0,
        "tle_line1": "1 62876U 25023A   25353.85169316 -.00000209  00000+0  00000+0 0  9998",
        "tle_line2": "2 62876   0.0481  68.6694 0001485 209.7376 207.4378  1.00272644  3162"
      },
      "geometry": {
        "type": "Point",
        "coordinates": [
          -66.84917265982342,
          -0.05244658098297619
        ]
      }
    }
  ]
}